{"type": "FeatureCollection", "features": [ {"type": "Feature", "properties": {"norad_id": 66878, "name": "STARLINK-35866", "group": "last-30-days", "lat": 18.215832795166257, "lon": -134.95031706859632, "alt_km": 307.88424364329876, "timestamp": "2025-12-15T14:57:56.622804+00:00", "meta": {"OBJECT_NAME": "STARLINK-35866", "OBJECT_ID": "2025-283A", "EPOCH": "2025-12-14T20:00:06.000192", "MEAN_MOTION": 15.89284848, "ECCENTRICITY": 7.213e-05, "INCLINATION": 53.1552, "RA_OF_ASC_NODE": 63.3416, "ARG_OF_PERICENTER": 68.5373, "MEAN_ANOMALY": 247.578, "EPHEMERIS_TYPE": 0, "CLASSIFICATION_TYPE": "U", "NORAD_CAT_ID": 66878, "ELEMENT_SET_NO": 999, "REV_AT_EPOCH": 276, "BSTAR": -0.0042973433, "MEAN_MOTION_DOT": -0.01122418, "MEAN_MOTION_DDOT": 0}, "tle": {"line1": "1 66878U 25283A   25348.83340278 -.01122418  00000+0 -42973-2 0  9999", "line2": "2 66878  53.1552  63.3416 0000721  68.5373 247.5780 15.89284848  2768"}}, "geometry": {"type": "Point", "coordinates": [-134.95031706859632, 18.215832795166257]}}, {"type": "Feature", "properties": {"norad_id": 66879, "name": "STARLINK-35749", "group": "last-30-days", "lat": 14.173260058365724, "lon": -131.5909721934585, "alt_km": 308.5698484245913, "timestamp": "2025-12-15T14:57:56.622815+00:00", "meta": {"OBJECT_NAME": "STARLINK-35749", "OBJECT_ID": "2025-283B", "EPOCH": "2025-12-14T20:00:06.000192", "MEAN_MOTION": 15.89372457, "ECCENTRICITY": 9.555e-05, "INCLINATION": 53.155, "RA_OF_ASC_NODE": 63.3309, "ARG_OF_PERICENTER": 64.127, "MEAN_ANOMALY": 256.9994, "EPHEMERIS_TYPE": 0, "CLASSIFICATION_TYPE": "U", "NORAD_CAT_ID": 66879, "ELEMENT_SET_NO": 999, "REV_AT_EPOCH": 276, "BSTAR": -0.0044210285, "MEAN_MOTION_DOT": -0.01155418, "MEAN_MOTION_DDOT": 0}, "tle": {"line1": "1 66879U 25283B   25348.83340278 -.01155418  00000+0 -44210-2 0  9992", "line2": "2 66879  53.1550  63.3309 0000955  64.1270 256.9994 15.89372457  2760"}}, "geometry": {"type": "Point", "coordinates": [-131.5909721934585, 14.173260058365724]}}, {"type": "Feature", "properties": {"norad_id": 66880, "name": "STARLINK-35844", "group": "last-30-days", "lat": 16.297547160669385, "lon": -133.3331270905324, "alt_km": 308.1488202416567, "timestamp": "2025-12-15T14:57:56.622824+00:00", "meta": {"OBJECT_NAME": "STARLINK-35844", "OBJECT_ID": "2025-283C", "EPOCH": "2025-12-14T20:00:06.000192", "MEAN_MOTION": 15.89324483, "ECCENTRICITY": 7.045e-05, "INCLINATION": 53.1552, "RA_OF_ASC_NODE": 63.3368, "ARG_OF_PERICENTER": 68.6314, "MEAN_ANOMALY": 249.8589, "EPHEMERIS_TYPE": 0, "CLASSIFICATION_TYPE": "U", "NORAD_CAT_ID": 66880, "ELEMENT_SET_NO": 999, "REV_AT_EPOCH": 276, "BSTAR": -0.0043271934, "MEAN_MOTION_DOT": -0.01131279, "MEAN_MOTION_DDOT": 0}, "tle": {"line1": "1 66880U 25283C   25348.83340278 -.01131279  00000+0 -43272-2 0  9990", "line2": "2 66880  53.1552  63.3368 0000704  68.6314 249.8589 15.89324483  2766"}}, "geometry": {"type": "Point", "coordinates": [-133.3331270905324, 16.297547160669385]}}, {"type": "Feature", "properties": {"norad_id": 66881, "name": "STARLINK-35860", "group": "last-30-days", "lat": 12.501332250301887, "lon": -130.24974929668707, "alt_km": 308.7889553696459, "timestamp": "2025-12-15T14:57:56.622833+00:00", "meta": {"OBJECT_NAME": "STARLINK-35860", "OBJECT_ID": "2025-283D", "EPOCH": "2025-12-14T20:00:06.000192", "MEAN_MOTION": 15.89409788, "ECCENTRICITY": 9.968e-05, "INCLINATION": 53.155, "RA_OF_ASC_NODE": 63.3265, "ARG_OF_PERICENTER": 64.6861, "MEAN_ANOMALY": 258.4776, "EPHEMERIS_TYPE": 0, "CLASSIFICATION_TYPE": "U", "NORAD_CAT_ID": 66881, "ELEMENT_SET_NO": 999, "REV_AT_EPOCH": 276, "BSTAR": -0.0044475374, "MEAN_MOTION_DOT": -0.01163453, "MEAN_MOTION_DDOT": 0}, "tle": {"line1": "1 66881U 25283D   25348.83340278 -.01163453  00000+0 -44475-2 0  9996", "line2": "2 66881  53.1550  63.3265 0000996  64.6861 258.4776 15.89409788  2763"}}, "geometry": {"type": "Point", "coordinates": [-130.24974929668707, 12.501332250301887]}}, {"type": "Feature", "properties": {"norad_id": 66882, "name": "STARLINK-35912", "group": "last-30-days", "lat": 10.595409291003598, "lon": -128.74738842306493, "alt_km": 309.0727617833645, "timestamp": "2025-12-15T14:57:56.622842+00:00", "meta": {"OBJECT_NAME": "STARLINK-35912", "OBJECT_ID": "2025-283E", "EPOCH": "2025-12-14T20:00:06.000192", "MEAN_MOTION": 15.89450943, "ECCENTRICITY": 7.973e-05, "INCLINATION": 53.1551, "RA_OF_ASC_NODE": 63.3221, "ARG_OF_PERICENTER": 62.7456, "MEAN_ANOMALY": 262.751, "EPHEMERIS_TYPE": 0, "CLASSIFICATION_TYPE": "U", "NORAD_CAT_ID": 66882, "ELEMENT_SET_NO": 999, "REV_AT_EPOCH": 276, "BSTAR": -0.0044991965, "MEAN_MOTION_DOT": -0.01177302, "MEAN_MOTION_DDOT": 0}, "tle": {"line1": "1 66882U 25283E   25348.83340278 -.01177302  00000+0 -44992-2 0  9999", "line2": "2 66882  53.1551  63.3221 0000797  62.7456 262.7510 15.89450943  2768"}}, "geometry": {"type": "Point", "coordinates": [-128.74738842306493, 10.595409291003598]}}, {"type": "Feature", "properties": {"norad_id": 66883, "name": "STARLINK-35947", "group": "last-30-days", "lat": 8.568834079484423, "lon": -127.17658501126492, "alt_km": 309.3456251364323, "timestamp": "2025-12-15T14:57:56.622851+00:00", "meta": {"OBJECT_NAME": "STARLINK-35947", "OBJECT_ID": "2025-283F", "EPOCH": "2025-12-14T20:00:06.000192", "MEAN_MOTION": 15.89497706, "ECCENTRICITY": 6.518e-05, "INCLINATION": 53.1551, "RA_OF_ASC_NODE": 63.3171, "ARG_OF_PERICENTER": 68.2381, "MEAN_ANOMALY": 259.7614, "EPHEMERIS_TYPE": 0, "CLASSIFICATION_TYPE": "U", "NORAD_CAT_ID": 66883, "ELEMENT_SET_NO": 999, "REV_AT_EPOCH": 281, "BSTAR": -0.0046193807, "MEAN_MOTION_DOT": -0.01230837, "MEAN_MOTION_DDOT": 0}, "tle": {"line1": "1 66883U 25283F   25348.83340278 -.01230837  00000+0 -46194-2 0  9999", "line2": "2 66883  53.1551  63.3171 0000651  68.2381 259.7614 15.89497706  2815"}}, "geometry": {"type": "Point", "coordinates": [-127.17658501126492, 8.568834079484423]}}, {"type": "Feature", "properties": {"norad_id": 66884, "name": "STARLINK-36057", "group": "last-30-days", "lat": 4.577748102837124, "lon": -124.14193153452213, "alt_km": 310.01010401589065, "timestamp": "2025-12-15T14:57:56.622860+00:00", "meta": {"OBJECT_NAME": "STARLINK-36057", "OBJECT_ID": "2025-283G", "EPOCH": "2025-12-14T20:00:06.000192", "MEAN_MOTION": 15.89580806, "ECCENTRICITY": 6.515e-05, "INCLINATION": 53.1551, "RA_OF_ASC_NODE": 63.3063, "ARG_OF_PERICENTER": 70.0258, "MEAN_ANOMALY": 262.8949, "EPHEMERIS_TYPE": 0, "CLASSIFICATION_TYPE": "U", "NORAD_CAT_ID": 66884, "ELEMENT_SET_NO": 999, "REV_AT_EPOCH": 276, "BSTAR": -0.0048416622, "MEAN_MOTION_DOT": -0.0128808, "MEAN_MOTION_DDOT": 0}, "tle": {"line1": "1 66884U 25283G   25348.83340278 -.01288080  00000+0 -48417-2 0  9993", "line2": "2 66884  53.1551  63.3063 0000651  70.0258 262.8949 15.89580806  2764"}}, "geometry": {"type": "Point", "coordinates": [-124.14193153452213, 4.577748102837124]}}, {"type": "Feature", "properties": {"norad_id": 66885, "name": "STARLINK-35954", "group": "last-30-days", "lat": 6.573966993494033, "lon": -125.65214681139872, "alt_km": 309.6856721316435, "timestamp": "2025-12-15T14:57:56.622869+00:00", "meta": {"OBJECT_NAME": "STARLINK-35954", "OBJECT_ID": "2025-283H", "EPOCH": "2025-12-14T20:00:06.000192", "MEAN_MOTION": 15.89544464, "ECCENTRICITY": 6.595e-05, "INCLINATION": 53.1549, "RA_OF_ASC_NODE": 63.3115, "ARG_OF_PERICENTER": 70.6632, "MEAN_ANOMALY": 259.8024, "EPHEMERIS_TYPE": 0, "CLASSIFICATION_TYPE": "U", "NORAD_CAT_ID": 66885, "ELEMENT_SET_NO": 999, "REV_AT_EPOCH": 276, "BSTAR": -0.0047590592, "MEAN_MOTION_DOT": -0.01266527, "MEAN_MOTION_DDOT": 0}, "tle": {"line1": "1 66885U 25283H   25348.83340278 -.01266527  00000+0 -47591-2 0  9998", "line2": "2 66885  53.1549  63.3115 0000659  70.6632 259.8024 15.89544464  2760"}}, "geometry": {"type": "Point", "coordinates": [-125.65214681139872, 6.573966993494033]}}, {"type": "Feature", "properties": {"norad_id": 66886, "name": "STARLINK-35900", "group": "last-30-days", "lat": 2.115988691782224, "lon": -122.29395176973253, "alt_km": 310.4184867846943, "timestamp": "2025-12-15T14:57:56.622879+00:00", "meta": {"OBJECT_NAME": "STARLINK-35900", "OBJECT_ID": "2025-283J", "EPOCH": "2025-12-14T20:00:06.000192", "MEAN_MOTION": 15.89604891, "ECCENTRICITY": 6.575e-05, "INCLINATION": 53.1548, "RA_OF_ASC_NODE": 63.2999, "ARG_OF_PERICENTER": 68.0396, "MEAN_ANOMALY": 267.9339, "EPHEMERIS_TYPE": 0, "CLASSIFICATION_TYPE": "U", "NORAD_CAT_ID": 66886, "ELEMENT_SET_NO": 999, "REV_AT_EPOCH": 276, "BSTAR": -0.0049027948, "MEAN_MOTION_DOT": -0.01303858, "MEAN_MOTION_DDOT": 0}, "tle": {"line1": "1 66886U 25283J   25348.83340278 -.01303858  00000+0 -49028-2 0  9995", "line2": "2 66886  53.1548  63.2999 0000657  68.0396 267.9339 15.89604891  2765"}}, "geometry": {"type": "Point", "coordinates": [-122.29395176973253, 2.115988691782224]}}, {"type": "Feature", "properties": {"norad_id": 66887, "name": "STARLINK-35925", "group": "last-30-days", "lat": 0.17733017778034116, "lon": -120.84394876935984, "alt_km": 310.6697841283494, "timestamp": "2025-12-15T14:57:56.622890+00:00", "meta": {"OBJECT_NAME": "STARLINK-35925", "OBJECT_ID": "2025-283K", "EPOCH": "2025-12-14T20:00:06.000192", "MEAN_MOTION": 15.89630918, "ECCENTRICITY": 6.37e-05, "INCLINATION": 53.155, "RA_OF_ASC_NODE": 63.2953, "ARG_OF_PERICENTER": 67.8867, "MEAN_ANOMALY": 270.4586, "EPHEMERIS_TYPE": 0, "CLASSIFICATION_TYPE": "U", "NORAD_CAT_ID": 66887, "ELEMENT_SET_NO": 999, "REV_AT_EPOCH": 276, "BSTAR": -0.0049320556, "MEAN_MOTION_DOT": -0.01312248, "MEAN_MOTION_DDOT": 0}, "tle": {"line1": "1 66887U 25283K   25348.83340278 -.01312248  00000+0 -49321-2 0  9995", "line2": "2 66887  53.1550  63.2953 0000637  67.8867 270.4586 15.89630918  2769"}}, "geometry": {"type": "Point", "coordinates": [-120.84394876935984, 0.17733017778034116]}}]}